IRIDIUM 112             
1 41925U 17003J   23360.84053093  .00000492  00000+0  16874-3 0  9991
2 41925  86.3970 105.8621 0002018 101.1423 259.0000 14.34216498363798
IRIDIUM 111             
1 41926U 17003K   23360.82784713  .00000080  00000+0  21380-4 0  9992
2 41926  86.3970 105.9180 0002313  93.2902 266.8558 14.34216249363777
IRIDIUM 113             
1 42803U 17039A   23360.94734948 -.00000028  00000+0 -17174-4 0  9994
2 42803  86.3972 339.6163 0002309  96.4532 263.6927 14.34217474341727
IRIDIUM 123             
1 42804U 17039B   23360.57021558  .00000474  00000+0  16228-3 0  9991
2 42804  86.3968  11.2655 0002345  95.5614 264.5850 14.34221300340438
IRIDIUM 120             
1 42805U 17039C   23360.94100738  .00000568  00000+0  19587-3 0  9996
2 42805  86.3962 339.5186 0002287  88.9751 271.1707 14.34217786341711
IRIDIUM 115             
1 42806U 17039D   23360.94586979  .00000670  00000+0  19330-3 0  9992
2 42806  86.4500 339.5156 0002430  91.0323 269.1156 14.43272443343985
IRIDIUM 118             
1 42807U 17039E   23360.95076987  .00000459  00000+0  15675-3 0  9990
2 42807  86.3968  11.1086 0002211  93.1838 266.9611 14.34220648340482
IRIDIUM 117             
1 42808U 17039F   23360.55118237  .00000492  00000+0  16870-3 0  9997
2 42808  86.3966  11.2413 0002316  89.6787 270.4674 14.34221876340466
